[{"OBJECT_NAME":"INTELSAT 37E (IS-37E)","OBJECT_ID":"2017-059A","EPOCH":"2026-03-28T20:04:38.592192","MEAN_MOTION":1.00268827,"ECCENTRICITY":0.0002037,"INCLINATION":0.0239,"RA_OF_ASC_NODE":175.4387,"ARG_OF_PERICENTER":201.1994,"MEAN_ANOMALY":92.7782,"EPHEMERIS_TYPE":0,"CLASSIFICATION_TYPE":"U","NORAD_CAT_ID":42950,"ELEMENT_SET_NO":999,"REV_AT_EPOCH":3126,"BSTAR":0,"MEAN_MOTION_DOT":0,"MEAN_MOTION_DDOT":0},{"OBJECT_NAME":"BSAT-4A","OBJECT_ID":"2017-059B","EPOCH":"2026-03-28T20:26:25.558944","MEAN_MOTION":1.00269903,"ECCENTRICITY":0.0004401,"INCLINATION":0.0667,"RA_OF_ASC_NODE":42.561,"ARG_OF_PERICENTER":349.4329,"MEAN_ANOMALY":210.6989,"EPHEMERIS_TYPE":0,"CLASSIFICATION_TYPE":"U","NORAD_CAT_ID":42951,"ELEMENT_SET_NO":999,"REV_AT_EPOCH":3099,"BSTAR":0,"MEAN_MOTION_DOT":-3.7e-6,"MEAN_MOTION_DDOT":0},{"OBJECT_NAME":"QZS-4 (MICHIBIKI-4)","OBJECT_ID":"2017-062A","EPOCH":"2026-03-28T13:42:11.532384","MEAN_MOTION":1.00273721,"ECCENTRICITY":0.0748036,"INCLINATION":40.1569,"RA_OF_ASC_NODE":344.5133,"ARG_OF_PERICENTER":270.3627,"MEAN_ANOMALY":277.2698,"EPHEMERIS_TYPE":0,"CLASSIFICATION_TYPE":"U","NORAD_CAT_ID":42965,"ELEMENT_SET_NO":999,"REV_AT_EPOCH":3099,"BSTAR":0,"MEAN_MOTION_DOT":-3.34e-6,"MEAN_MOTION_DDOT":0},{"OBJECT_NAME":"SES-11 (ECHOSTAR 105)","OBJECT_ID":"2017-063A","EPOCH":"2026-03-28T15:59:50.832384","MEAN_MOTION":1.00271648,"ECCENTRICITY":0.0002552,"INCLINATION":0.0447,"RA_OF_ASC_NODE":23.7326,"ARG_OF_PERICENTER":351.2842,"MEAN_ANOMALY":306.0669,"EPHEMERIS_TYPE":0,"CLASSIFICATION_TYPE":"U","NORAD_CAT_ID":42967,"ELEMENT_SET_NO":999,"REV_AT_EPOCH":3091,"BSTAR":0,"MEAN_MOTION_DOT":-1.09e-6,"MEAN_MOTION_DDOT":0},{"OBJECT_NAME":"KOREASAT 5A","OBJECT_ID":"2017-067A","EPOCH":"2026-03-28T20:27:25.464384","MEAN_MOTION":1.00272961,"ECCENTRICITY":0.0001834,"INCLINATION":0.0147,"RA_OF_ASC_NODE":261.3434,"ARG_OF_PERICENTER":124.2451,"MEAN_ANOMALY":220.6752,"EPHEMERIS_TYPE":0,"CLASSIFICATION_TYPE":"U","NORAD_CAT_ID":42984,"ELEMENT_SET_NO":999,"REV_AT_EPOCH":3072,"BSTAR":0,"MEAN_MOTION_DOT":-3.78e-6,"MEAN_MOTION_DDOT":0},{"OBJECT_NAME":"ALCOMSAT 1","OBJECT_ID":"2017-078A","EPOCH":"2026-03-28T20:12:38.537280","MEAN_MOTION":1.00271556,"ECCENTRICITY":0.000265,"INCLINATION":0.0182,"RA_OF_ASC_NODE":161.5008,"ARG_OF_PERICENTER":183.7514,"MEAN_ANOMALY":119.3629,"EPHEMERIS_TYPE":0,"CLASSIFICATION_TYPE":"U","NORAD_CAT_ID":43039,"ELEMENT_SET_NO":999,"REV_AT_EPOCH":3049,"BSTAR":0,"MEAN_MOTION_DOT":-2.06e-6,"MEAN_MOTION_DDOT":0},{"OBJECT_NAME":"SBIRS GEO-3 (USA 282)","OBJECT_ID":"2018-009A","EPOCH":"2026-03-28T15:44:22.315776","MEAN_MOTION":1.0027234,"ECCENTRICITY":0.0002288,"INCLINATION":2.1351,"RA_OF_ASC_NODE":8.1663,"ARG_OF_PERICENTER":350.3426,"MEAN_ANOMALY":264.2393,"EPHEMERIS_TYPE":0,"CLASSIFICATION_TYPE":"U","NORAD_CAT_ID":43162,"ELEMENT_SET_NO":999,"REV_AT_EPOCH":3003,"BSTAR":0,"MEAN_MOTION_DOT":1.1e-6,"MEAN_MOTION_DDOT":0},{"OBJECT_NAME":"AL YAH 3","OBJECT_ID":"2018-012A","EPOCH":"2026-03-28T19:46:38.566272","MEAN_MOTION":1.00272092,"ECCENTRICITY":0.0004279,"INCLINATION":1.3448,"RA_OF_ASC_NODE":84.0586,"ARG_OF_PERICENTER":288.1714,"MEAN_ANOMALY":90.5607,"EPHEMERIS_TYPE":0,"CLASSIFICATION_TYPE":"U","NORAD_CAT_ID":43174,"ELEMENT_SET_NO":999,"REV_AT_EPOCH":3004,"BSTAR":0,"MEAN_MOTION_DOT":-1.74e-6,"MEAN_MOTION_DDOT":0},{"OBJECT_NAME":"SES-14","OBJECT_ID":"2018-012B","EPOCH":"2026-03-28T07:42:53.551296","MEAN_MOTION":1.00272419,"ECCENTRICITY":9.068e-5,"INCLINATION":0.0329,"RA_OF_ASC_NODE":45.6423,"ARG_OF_PERICENTER":305.1287,"MEAN_ANOMALY":263.1805,"EPHEMERIS_TYPE":0,"CLASSIFICATION_TYPE":"U","NORAD_CAT_ID":43175,"ELEMENT_SET_NO":999,"REV_AT_EPOCH":621,"BSTAR":0,"MEAN_MOTION_DOT":-2.98e-6,"MEAN_MOTION_DDOT":0},{"OBJECT_NAME":"GOES 17","OBJECT_ID":"2018-022A","EPOCH":"2026-03-28T14:21:37.751040","MEAN_MOTION":1.00271175,"ECCENTRICITY":0.0001538,"INCLINATION":0.7312,"RA_OF_ASC_NODE":86.9387,"ARG_OF_PERICENTER":236.4458,"MEAN_ANOMALY":348.5274,"EPHEMERIS_TYPE":0,"CLASSIFICATION_TYPE":"U","NORAD_CAT_ID":43226,"ELEMENT_SET_NO":999,"REV_AT_EPOCH":2961,"BSTAR":0,"MEAN_MOTION_DOT":-2.01e-6,"MEAN_MOTION_DDOT":0},{"OBJECT_NAME":"HISPASAT 30W-6","OBJECT_ID":"2018-023A","EPOCH":"2026-03-28T18:03:53.938368","MEAN_MOTION":1.00270437,"ECCENTRICITY":0.0005961,"INCLINATION":0.0255,"RA_OF_ASC_NODE":78.997,"ARG_OF_PERICENTER":300.9535,"MEAN_ANOMALY":47.1938,"EPHEMERIS_TYPE":0,"CLASSIFICATION_TYPE":"U","NORAD_CAT_ID":43228,"ELEMENT_SET_NO":999,"REV_AT_EPOCH":2959,"BSTAR":0,"MEAN_MOTION_DOT":0,"MEAN_MOTION_DDOT":0},{"OBJECT_NAME":"SUPERBIRD-B3","OBJECT_ID":"2018-033A","EPOCH":"2026-03-28T06:59:57.668352","MEAN_MOTION":1.00271444,"ECCENTRICITY":0.0001234,"INCLINATION":0.0264,"RA_OF_ASC_NODE":94.8094,"ARG_OF_PERICENTER":279.3454,"MEAN_ANOMALY":78.5316,"EPHEMERIS_TYPE":0,"CLASSIFICATION_TYPE":"U","NORAD_CAT_ID":43271,"ELEMENT_SET_NO":999,"REV_AT_EPOCH":2924,"BSTAR":0,"MEAN_MOTION_DOT":-1.12e-6,"MEAN_MOTION_DDOT":0},{"OBJECT_NAME":"HYLAS 4","OBJECT_ID":"2018-033B","EPOCH":"2026-03-28T20:37:38.720352","MEAN_MOTION":1.0026915,"ECCENTRICITY":0.0001047,"INCLINATION":0.0219,"RA_OF_ASC_NODE":108.1804,"ARG_OF_PERICENTER":268.2684,"MEAN_ANOMALY":85.6583,"EPHEMERIS_TYPE":0,"CLASSIFICATION_TYPE":"U","NORAD_CAT_ID":43272,"ELEMENT_SET_NO":999,"REV_AT_EPOCH":2926,"BSTAR":0,"MEAN_MOTION_DOT":-2.54e-6,"MEAN_MOTION_DDOT":0},{"OBJECT_NAME":"IRNSS-1I","OBJECT_ID":"2018-035A","EPOCH":"2026-03-28T13:19:58.662048","MEAN_MOTION":1.00276129,"ECCENTRICITY":0.00186,"INCLINATION":28.9893,"RA_OF_ASC_NODE":75.4371,"ARG_OF_PERICENTER":189.5578,"MEAN_ANOMALY":176.071,"EPHEMERIS_TYPE":0,"CLASSIFICATION_TYPE":"U","NORAD_CAT_ID":43286,"ELEMENT_SET_NO":999,"REV_AT_EPOCH":2927,"BSTAR":0,"MEAN_MOTION_DOT":8.6e-7,"MEAN_MOTION_DDOT":0},{"OBJECT_NAME":"USA 283","OBJECT_ID":"2018-036A","EPOCH":"2026-03-27T10:22:38.737920","MEAN_MOTION":1.00268377,"ECCENTRICITY":1.2e-5,"INCLINATION":0.0191,"RA_OF_ASC_NODE":155.1188,"ARG_OF_PERICENTER":145.4214,"MEAN_ANOMALY":174.0767,"EPHEMERIS_TYPE":0,"CLASSIFICATION_TYPE":"U","NORAD_CAT_ID":43339,"ELEMENT_SET_NO":999,"REV_AT_EPOCH":2447,"BSTAR":0,"MEAN_MOTION_DOT":0,"MEAN_MOTION_DDOT":0},{"OBJECT_NAME":"COSMOS 2526","OBJECT_ID":"2018-037A","EPOCH":"2026-03-27T10:18:01.648800","MEAN_MOTION":1.00272253,"ECCENTRICITY":0.0001048,"INCLINATION":0.0048,"RA_OF_ASC_NODE":211.5628,"ARG_OF_PERICENTER":237.8588,"MEAN_ANOMALY":17.986,"EPHEMERIS_TYPE":0,"CLASSIFICATION_TYPE":"U","NORAD_CAT_ID":43432,"ELEMENT_SET_NO":999,"REV_AT_EPOCH":2914,"BSTAR":0,"MEAN_MOTION_DOT":-3.63e-6,"MEAN_MOTION_DDOT":0},{"OBJECT_NAME":"APSTAR-6C","OBJECT_ID":"2018-041A","EPOCH":"2026-03-28T20:33:24.890112","MEAN_MOTION":1.00271001,"ECCENTRICITY":0.0002589,"INCLINATION":0.01,"RA_OF_ASC_NODE":322.4787,"ARG_OF_PERICENTER":26.7325,"MEAN_ANOMALY":279.4142,"EPHEMERIS_TYPE":0,"CLASSIFICATION_TYPE":"U","NORAD_CAT_ID":43450,"ELEMENT_SET_NO":999,"REV_AT_EPOCH":2900,"BSTAR":0,"MEAN_MOTION_DOT":0,"MEAN_MOTION_DDOT":0},{"OBJECT_NAME":"BANGABANDHUSAT-1","OBJECT_ID":"2018-044A","EPOCH":"2026-03-28T20:29:10.296096","MEAN_MOTION":1.00272098,"ECCENTRICITY":0.0002272,"INCLINATION":0.0245,"RA_OF_ASC_NODE":111.5822,"ARG_OF_PERICENTER":259.104,"MEAN_ANOMALY":241.9571,"EPHEMERIS_TYPE":0,"CLASSIFICATION_TYPE":"U","NORAD_CAT_ID":43463,"ELEMENT_SET_NO":999,"REV_AT_EPOCH":2890,"BSTAR":0,"MEAN_MOTION_DOT":-3.82e-6,"MEAN_MOTION_DDOT":0},{"OBJECT_NAME":"SES-12","OBJECT_ID":"2018-049A","EPOCH":"2026-03-28T16:27:41.278752","MEAN_MOTION":1.00272008,"ECCENTRICITY":0.0002059,"INCLINATION":0.0416,"RA_OF_ASC_NODE":31.8346,"ARG_OF_PERICENTER":271.2478,"MEAN_ANOMALY":224.925,"EPHEMERIS_TYPE":0,"CLASSIFICATION_TYPE":"U","NORAD_CAT_ID":43488,"ELEMENT_SET_NO":999,"REV_AT_EPOCH":2861,"BSTAR":0,"MEAN_MOTION_DOT":-2.89e-6,"MEAN_MOTION_DDOT":0},{"OBJECT_NAME":"FENGYUN 2H","OBJECT_ID":"2018-050A","EPOCH":"2026-03-28T20:59:38.496768","MEAN_MOTION":1.00270326,"ECCENTRICITY":0.0001697,"INCLINATION":2.8238,"RA_OF_ASC_NODE":80.0249,"ARG_OF_PERICENTER":172.9082,"MEAN_ANOMALY":327.3229,"EPHEMERIS_TYPE":0,"CLASSIFICATION_TYPE":"U","NORAD_CAT_ID":43491,"ELEMENT_SET_NO":999,"REV_AT_EPOCH":2863,"BSTAR":0,"MEAN_MOTION_DOT":-1.44e-6,"MEAN_MOTION_DDOT":0},{"OBJECT_NAME":"BEIDOU-2 IGSO-7","OBJECT_ID":"2018-057A","EPOCH":"2026-03-27T15:08:38.812992","MEAN_MOTION":1.00275701,"ECCENTRICITY":0.01017729,"INCLINATION":55.1838,"RA_OF_ASC_NODE":163.7722,"ARG_OF_PERICENTER":237.2605,"MEAN_ANOMALY":124.1194,"EPHEMERIS_TYPE":0,"CLASSIFICATION_TYPE":"U","NORAD_CAT_ID":43539,"ELEMENT_SET_NO":999,"REV_AT_EPOCH":2831,"BSTAR":0,"MEAN_MOTION_DOT":-1.68e-6,"MEAN_MOTION_DDOT":0},{"OBJECT_NAME":"TELSTAR 19V","OBJECT_ID":"2018-059A","EPOCH":"2026-03-28T08:28:38.587296","MEAN_MOTION":1.00274786,"ECCENTRICITY":8.819e-5,"INCLINATION":0.0182,"RA_OF_ASC_NODE":180.0377,"ARG_OF_PERICENTER":264.3415,"MEAN_ANOMALY":165.5389,"EPHEMERIS_TYPE":0,"CLASSIFICATION_TYPE":"U","NORAD_CAT_ID":43562,"ELEMENT_SET_NO":999,"REV_AT_EPOCH":2833,"BSTAR":0,"MEAN_MOTION_DOT":-3.0e-6,"MEAN_MOTION_DDOT":0},{"OBJECT_NAME":"TELKOM 4 (MERAH PUTIH)","OBJECT_ID":"2018-064A","EPOCH":"2026-03-28T20:25:55.608384","MEAN_MOTION":1.00272124,"ECCENTRICITY":0.0002418,"INCLINATION":0.0152,"RA_OF_ASC_NODE":194.6668,"ARG_OF_PERICENTER":216.0839,"MEAN_ANOMALY":189.9857,"EPHEMERIS_TYPE":0,"CLASSIFICATION_TYPE":"U","NORAD_CAT_ID":43587,"ELEMENT_SET_NO":999,"REV_AT_EPOCH":2807,"BSTAR":0,"MEAN_MOTION_DOT":-3.64e-6,"MEAN_MOTION_DDOT":0},{"OBJECT_NAME":"TELSTAR 18V","OBJECT_ID":"2018-069A","EPOCH":"2026-03-28T14:03:38.702304","MEAN_MOTION":1.0027207,"ECCENTRICITY":0.0002168,"INCLINATION":0.0155,"RA_OF_ASC_NODE":243.7988,"ARG_OF_PERICENTER":113.5778,"MEAN_ANOMALY":177.517,"EPHEMERIS_TYPE":0,"CLASSIFICATION_TYPE":"U","NORAD_CAT_ID":43611,"ELEMENT_SET_NO":999,"REV_AT_EPOCH":2783,"BSTAR":0,"MEAN_MOTION_DOT":-3.13e-6,"MEAN_MOTION_DDOT":0}]
